NORAD_CAT_ID,OBJECT_NAME,OBJECT_TYPE,EPOCH,MEAN_MOTION,ECCENTRICITY,INCLINATION,RA_OF_ASC_NODE,ARG_OF_PERICENTER,MEAN_ANOMALY,BSTAR,MEAN_MOTION_DOT,MEAN_MOTION_DDOT,TLE_LINE0,TLE_LINE1,TLE_LINE2,SEMIMAJOR_AXIS,PERIOD,APOGEE,PERIGEE,DECAYED
53244.0,STARLINK-4125,PAYLOAD,2022-12-04 15:09:01,15.08804151,0.0002572,53.2151,150.9867,59.5786,300.546,0.00060498,9.344e-05,0.0,0 STARLINK-4125,1 53244U 22086C   22338.63126337  .00009344  00000-0  60498-3 0  9995,2 53244  53.2151 150.9867 0002572  59.5786 300.5460 15.08804151 20934,6917.99,95.44,541.634,538.076,0.0
53244.0,STARLINK-4125,PAYLOAD,2022-12-04 16:44:23,15.0884502,0.0002864,53.2147,150.6896,56.4088,303.7177,2.2597e-05,7.1e-07,0.0,0 STARLINK-4125,1 53244U 22086C   22338.69749020  .00000071  00000-0  22597-4 0  9998,2 53244  53.2147 150.6896 0002864  56.4088 303.7177 15.08845020 21440,6917.865,95.437,541.711,537.749,0.0
53244.0,STARLINK-4125,PAYLOAD,2022-12-04 23:05:55,15.088460199999998,0.0002802,53.2159,149.5008,51.9183,308.2062,2.9757e-05,1.85e-06,0.0,0 STARLINK-4125,1 53244U 22086C   22338.96244888  .00000185  00000-0  29757-4 0  9991,2 53244  53.2159 149.5008 0002802  51.9183 308.2062 15.08846020 20985,6917.861999999999,95.437,541.665,537.789,0.0
53244.0,STARLINK-4125,PAYLOAD,2022-12-05 11:48:59,15.08869029,0.0002928,53.2159,147.1214,50.8525,309.2727,-0.00028186,-4.776e-05,0.0,0 STARLINK-4125,1 53244U 22086C   22339.49235623 -.00004776  00000-0 -28186-3 0  9993,2 53244  53.2159 147.1214 0002928  50.8525 309.2727 15.08869029 21068,6917.792,95.436,541.682,537.631,0.0
53244.0,STARLINK-4125,PAYLOAD,2022-12-05 18:10:32,15.08845085,0.0002768999999999,53.2161,145.9321,53.4384,306.6863,0.00018005,2.579e-05,0.0,0 STARLINK-4125,1 53244U 22086C   22339.75732508  .00002579  00000-0  18005-3 0  9992,2 53244  53.2161 145.9321 0002769  53.4384 306.6863 15.08845085 21104,6917.865,95.437,541.645,537.814,0.0
53244.0,STARLINK-4125,PAYLOAD,2022-12-06 11:39:47,15.08844405,0.0002881,53.2149,142.661,55.7245,304.402,7.6782e-05,9.34e-06,0.0,0 STARLINK-4125,1 53244U 22086C   22340.48596554  .00000934  00000-0  76782-4 0  9993,2 53244  53.2149 142.6610 0002881  55.7245 304.4020 15.08844405 21714,6917.8669999999975,95.437,541.725,537.739,0.0
53244.0,STARLINK-4125,PAYLOAD,2022-12-06 18:01:20,15.08841205,0.0002898999999999,53.2155,141.4716,56.4206,303.7062,6.278300000000001e-06,-1.89e-06,0.0,0 STARLINK-4125,1 53244U 22086C   22340.75092668 -.00000189  00000-0  62783-5 0  9990,2 53244  53.2155 141.4716 0002899  56.4206 303.7062 15.08841205 21756,6917.877,95.437,541.747,537.736,0.0
53244.0,STARLINK-4125,PAYLOAD,2022-12-07 17:52:07,15.08835385,0.0002616,53.2171,137.0113,47.4678,312.6535,-2.2426e-06,-3.24e-06,0.0,0 STARLINK-4125,1 53244U 22086C   22341.74453414 -.00000324  00000-0 -22426-5 0  9992,2 53244  53.2171 137.0113 0002616  47.4678 312.6535 15.08835385 21404,6917.894,95.438,541.569,537.95,0.0
53244.0,STARLINK-4125,PAYLOAD,2022-12-07 19:27:30,15.08839656,0.000277,53.2162,136.7134,54.132,305.9929,-1.0582e-05,-4.57e-06,0.0,0 STARLINK-4125,1 53244U 22086C   22341.81077211 -.00000457  00000-0 -10582-4 0  9993,2 53244  53.2162 136.7134 0002770  54.1320 305.9929 15.08839656 21916,6917.880999999999,95.438,541.663,537.83,0.0
53244.0,STARLINK-4125,PAYLOAD,2022-12-08 03:24:26,15.08843245,0.0002774,53.2166,135.2266,55.0971,305.0281,3.9506e-05,3.4e-06,0.0,0 STARLINK-4125,1 53244U 22086C   22342.14196823  .00000340  00000-0  39506-4 0  9997,2 53244  53.2166 135.2266 0002774  55.0971 305.0281 15.08843245 21467,6917.87,95.437,541.654,537.816,0.0
53244.0,STARLINK-4125,PAYLOAD,2022-12-08 12:56:45,15.08825677,0.0002602,53.2154,133.4424,52.5004,307.6224,-7.8907e-05,-1.544e-05,0.0,0 STARLINK-4125,1 53244U 22086C   22342.53941595 -.00001544  00000-0 -78907-4 0  9991,2 53244  53.2154 133.4424 0002602  52.5004 307.6224 15.08825677 22026,6917.924,95.438,541.589,537.989,0.0
53244.0,STARLINK-4125,PAYLOAD,2022-12-09 03:15:13,15.08832007,0.0002719,53.2158,130.7662,53.3198,306.8043,3.1262e-05,2.09e-06,0.0,0 STARLINK-4125,1 53244U 22086C   22343.13557744  .00000209  00000-0  31262-4 0  9995,2 53244  53.2158 130.7662 0002719  53.3198 306.8043 15.08832007 22111,6917.905,95.438,541.651,537.889,0.0
53244.0,STARLINK-4125,PAYLOAD,2022-12-09 22:19:51,15.08839268,0.0002532,53.2159,127.1975,52.3238,307.7984,0.0001929,2.783e-05,0.0,0 STARLINK-4125,1 53244U 22086C   22343.93045600  .00002783  00000-0  19290-3 0  9991,2 53244  53.2159 127.1975 0002532  52.3238 307.7984 15.08839268 21733,6917.8830000000025,95.438,541.499,537.996,0.0
53244.0,STARLINK-4125,PAYLOAD,2022-12-10 14:13:42,15.0883862,0.0002299,53.2154,124.2239,51.4209,308.6989,0.00037015,5.607e-05,0.0,0 STARLINK-4125,1 53244U 22086C   22344.59285769  .00005607  00000-0  37015-3 0  9999,2 53244  53.2154 124.2239 0002299  51.4209 308.6989 15.08838620 22330,6917.885,95.438,541.34,538.159,0.0
53244.0,STARLINK-4125,PAYLOAD,2022-12-10 18:59:52,15.08844578,0.0002599,53.2157,123.3318,53.6601,306.4631,0.00027367,4.07e-05,0.0,0 STARLINK-4125,1 53244U 22086C   22344.79157569  .00004070  00000-0  27367-3 0  9999,2 53244  53.2157 123.3318 0002599  53.6601 306.4631 15.08844578 22366,6917.866,95.437,541.529,537.933,0.0
53244.0,STARLINK-4125,PAYLOAD,2022-12-11 09:18:20,15.08845517,0.000264,53.2157,120.6559,53.3084,306.815,0.00011555,1.551e-05,0.0,0 STARLINK-4125,1 53244U 22086C   22345.38773334  .00001551  00000-0  11555-3 0  9992,2 53244  53.2157 120.6559 0002640  53.3084 306.8150 15.08845517 21950,6917.864000000001,95.437,541.555,537.9019999999998,0.0
53244.0,STARLINK-4125,PAYLOAD,2022-12-11 18:50:38,15.08861671,0.0002569,53.216,118.8716,54.6748,305.4484,0.0003088,4.633e-05,0.0,0 STARLINK-4125,1 53244U 22086C   22345.78516295  .00004633  00000-0  30880-3 0  9993,2 53244  53.2160 118.8716 0002569  54.6748 305.4484 15.08861671 22011,6917.814,95.436,541.456,537.9019999999998,0.0
53244.0,STARLINK-4125,PAYLOAD,2022-12-11 20:26:01,15.08863583,0.0002667,53.2159,118.5745,52.9387,307.1849,0.00033789,5.097e-05,0.0,0 STARLINK-4125,1 53244U 22086C   22345.85140146  .00005097  00000-0  33789-3 0  9995,2 53244  53.2159 118.5745 0002667  52.9387 307.1849 15.08863583 22521,6917.808000000001,95.436,541.518,537.828,0.0
53244.0,STARLINK-4125,PAYLOAD,2022-12-12 09:09:06,15.08850457,0.0002604,53.2163,116.1963,51.7104,308.4122,9.0927e-05,1.159e-05,0.0,0 STARLINK-4125,1 53244U 22086C   22346.38132432  .00001159  00000-0  90927-4 0  9996,2 53244  53.2163 116.1963 0002604  51.7104 308.4122 15.08850457 22105,6917.848000000001,95.437,541.515,537.9119999999998,0.0
53244.0,STARLINK-4125,PAYLOAD,2022-12-12 12:19:52,15.08848048,0.0002545,53.2161,115.6007,54.8754,305.2476,7.0672e-05,8.37e-06,0.0,0 STARLINK-4125,1 53244U 22086C   22346.51380441  .00000837  00000-0  70672-4 0  9993,2 53244  53.2161 115.6007 0002545  54.8754 305.2476 15.08848048 22622,6917.856,95.437,541.481,537.96,0.0
53244.0,STARLINK-4125,PAYLOAD,2022-12-12 20:16:48,15.08840641,0.0002472,53.2162,114.1143,45.0397,315.0795,-3.6472e-05,-8.69e-06,0.0,0 STARLINK-4125,1 53244U 22086C   22346.84500722 -.00000869  00000-0 -36472-4 0  9992,2 53244  53.2162 114.1143 0002472  45.0397 315.0795 15.08840641 22176,6917.878000000002,95.438,541.4540000000002,538.033,0.0
53244.0,STARLINK-4125,PAYLOAD,2022-12-13 07:24:30,15.08838381,0.0002513,53.2173,112.0335,43.7373,316.3818,2.1144e-05,4.8e-07,0.0,0 STARLINK-4125,1 53244U 22086C   22347.30869071  .00000048  00000-0  21144-4 0  9996,2 53244  53.2173 112.0335 0002513  43.7373 316.3818 15.08838381 22744,6917.885,95.438,541.489,538.012,0.0
53244.0,STARLINK-4125,PAYLOAD,2022-12-13 20:07:35,15.08837288,0.0002459,53.2167,109.6537,48.3604,311.7598,1.3011e-05,-8.1e-07,0.0,0 STARLINK-4125,1 53244U 22086C   22347.83861092 -.00000081  00000-0  13011-4 0  9991,2 53244  53.2167 109.6537 0002459  48.3604 311.7598 15.08837288 22828,6917.889,95.438,541.455,538.053,0.0
53244.0,STARLINK-4125,PAYLOAD,2022-12-14 00:53:45,15.08844753,0.0002414,53.217,108.7615,47.8023,312.3174,-8.8371e-05,-1.695e-05,0.0,0 STARLINK-4125,1 53244U 22086C   22348.03732789 -.00001695  00000-0 -88371-4 0  9998,2 53244  53.2170 108.7615 0002414  47.8023 312.3174 15.08844753 22359,6917.866,95.437,541.401,538.061,0.0
53244.0,STARLINK-4125,PAYLOAD,2022-12-14 08:50:40,15.08840108,0.0002366,53.2171,107.2747,47.2689,312.8502,2.8452e-05,1.64e-06,0.0,0 STARLINK-4125,1 53244U 22086C   22348.36852732  .00000164  00000-0  28452-4 0  9997,2 53244  53.2171 107.2747 0002366  47.2689 312.8502 15.08840108 22909,6917.88,95.438,541.382,538.1080000000002,0.0
53244.0,STARLINK-4125,PAYLOAD,2022-12-14 15:12:13,15.08835365,0.0002379,53.2174,106.0852,36.3002,323.8152,4.7079e-05,4.61e-06,0.0,0 STARLINK-4125,1 53244U 22086C   22348.63349052  .00000461  00000-0  47079-4 0  9999,2 53244  53.2174 106.0852 0002379  36.3002 323.8152 15.08835365 22449,6917.895,95.438,541.405,538.114,0.0
53244.0,STARLINK-4125,PAYLOAD,2022-12-15 13:27:37,15.0883995,0.0002275,53.2176,101.9222,39.3832,320.7325,8.625600000000001e-05,1.085e-05,0.0,0 STARLINK-4125,1 53244U 22086C   22349.56085059  .00001085  00000-0  86256-4 0  9999,2 53244  53.2176 101.9222 0002275  39.3832 320.7325 15.08839950 23088,6917.880999999999,95.438,541.319,538.172,0.0
53244.0,STARLINK-4125,PAYLOAD,2022-12-15 18:13:47,15.0883032,0.0002461,53.2175,101.0301,38.5145,321.6022,2.5849e-06,-2.47e-06,0.0,0 STARLINK-4125,1 53244U 22086C   22349.75958023 -.00000247  00000-0  25849-5 0  9992,2 53244  53.2175 101.0301 0002461  38.5145 321.6022 15.08830320 23111,6917.91,95.438,541.477,538.072,0.0
53244.0,STARLINK-4125,PAYLOAD,2022-12-15 19:49:10,15.08830621,0.000244,53.2172,100.7328,38.3292,321.7873,-3.8836e-06,-3.5000000000000016e-06,0.0,0 STARLINK-4125,1 53244U 22086C   22349.82582037 -.00000350  00000-0 -38836-5 0  9994,2 53244  53.2172 100.7328 0002440  38.3292 321.7873 15.08830621 22625,6917.909000000002,95.438,541.462,538.086,0.0
